Code,Airport Name,City,Country,Altitude,Lat,Long,Traffic Rank,Traffic
ATL,THE WILLIAM B HARTSFIELD ATLANTA INTERNATIONAL,ATLANTA,USA,313,33.64,-84.427,1,103902992
PEK,CAPITAL,BEIJING,CHINA,36,40.08,116.584,2,95786442
DXB,DUBAI INTERNATIONAL,DUBAI,UNITED ARAB EMIRATES,11,25.255,55.364,3,88242099
LAX,LOS ANGELES INTERNATIONAL,LOS ANGELES,USA,39,33.942,-118.408,4,84557968
ORD,CHICAGO OHARE INTERNATIONAL,CHICAGO,USA,204,41.979,-87.904,5,79828183
LHR,HEATHROW,LONDON,ENGALND,25,51.477,-0.461,6,78014598
HND,TOKYO INTERNATIONAL,TOKYO,JAPAN,11,35.552,139.779,7,76476251
HKG,HONG KONG INTERNATIONAL,HONG KONG,HONG KONG,9,22.309,113.914,8,72665078
CDG,CHARLES DE GAULLE,PARIS,FRANCE,120,49.013,2.55,10,69471442
AMS,SCHIPHOL,AMSTERDAM,NETHERLANDS,-3,52.309,4.764,11,68515425
DFW,DALLAS FORT WORTH INTERNATIONAL,DALLAS-FORT WORTH,USA,184,32.896,-97.037,12,67092194
CAN,BAIYUN,GUANGZHOU,CHINA,12,23.184,113.266,13,65887473
FRA,FRANKFURT MAIN,FRANKFURT,GERMANY,111,50.026,8.543,14,64500386
IST,ATATURK,ISTANBUL,TURKEY,50,40.977,28.821,15,63859785
DEL,INDIRA GANDHI INTERNATIONAL,DELHI,INDIA,237,28.566,77.103,16,63451503
CGK,SOEKARNO HATTA INTERNATIONAL,JAKARTA,INDONESIA,11,-6.126,106.656,17,63015620
SIN,SINGAPORE CHANGI,SINGAPORE,SINGAPORE,7,1.356,103.987,18,62219573
DEN,DENVER INTERNATIONAL,DENVER,USA,1656,39.858,-104.667,20,61379396
BKK,BANGKOK INTERNATIONAL,BANGKOK,THAILAND,3,13.912,100.607,21,60860557
JFK,JOHN F KENNEDY INTERNATIONAL,NEW YORK,USA,4,40.64,-73.779,22,59392500
KUL,KUALA LUMPUR INTERNATIONAL,KUALA LUMPUR,MALAYSIA,22,2.746,101.71,23,58558440
SFO,SAN FRANCISCO INTERNATIONAL,SAN FRANCISCO,USA,4,37.619,-122.375,24,55822129
MAD,BARAJAS,MADRID,SPAIN,610,40.472,-3.561,25,53386075
CTU,SHUANGLIU,CHENGDU,CHINA,495,30.578,103.947,26,49801693
LAS,MC CARRAN INTERNATIONAL,LAS VEGAS,USA,665,36.08,-115.152,27,48566803
BCN,BARCELONA,BARCELONA,SPAIN,4,41.297,2.078,28,47262826
BOM,CHHATRAPATI SHIVAJI INTERNATIONAL,BOMBAY,INDIA,12,19.089,72.868,29,47204259
YYZ,LESTER B PEARSON INTERNATIONAL,TORONTO,CANADA,174,43.677,-79.631,30,47054696
SEA,SEATTLE TACOMA INTERNATIONAL,SEATTLE,USA,131,47.449,-122.309,31,46934194
CLT,CHARLOTTE DOUGLAS INTERNATIONAL,CHARLOTTE,USA,229,35.214,-80.943,32,45909899
LGW,GATWICK,LONDON,ENGLAND,60,51.148,-0.19,33,45561694
SZX,BAOAN,SHENZHEN,CHINA,4,22.639,113.812,34,45558409
TPE,CHIANG KAI SHEK INTERNATIONAL,TAIPEI,TAIWAN,33,25.08,121.232,35,44878703
MEX,LICENCIADO BENITO JUAREZ INTERNATIONAL,MEXICO CITY,MEXICO,2230,19.436,-99.072,36,44732418
KMG,WUJIABA,KUNMING,CHINA,1895,24.992,102.743,37,44729736
MUC,MUNICH,MUNICH,GERMANY,454,48.354,11.786,38,44577241
MCO,ORLANDO INTERNATIONAL,ORLANDO,USA,30,28.429,-81.316,39,44511265
MIA,MIAMI INTERNATIONAL,MIAMI,USA,3,25.793,-80.291,40,44071313
PHX,PHOENIX SKY HARBOR INTERNATIONAL,PHOENIX,USA,346,33.434,-112.008,41,43921670
SYD,KINGSFORD SMITH INTERNATIONAL AIRPORT,SYDNEY,AUSTRALIA,7,-33.946,151.177,42,43410355
EWR,NEWARK LIBERTY INTERNATIONAL,NEWARK,USA,6,40.692,-74.169,43,43393499
MNL,NINOY AQUINO INTERNATIONAL,MANILA,PHILIPPINES,23,14.509,121.019,44,42022484
MNL,MALABANG,MANILA,PHILIPPINES,9,7.617,124.059,44,42022484
SHA,HONGQIAO INTERNATIONAL,SHANGHAI,CHINA,4,31.198,121.336,45,41884059
XIY,XIANYANG,XI'AN,CHINA,480,34.446,108.752,46,41857406
FCO,FIUMICINO,ROME,ITALY,4,41.813,12.253,47,40968756
IAH,GEORGE BUSH INTCNTL HOUSTON,HOUSTON,USA,30,29.98,-95.34,48,40696189
NRT,NEW TOKYO INTERNATIONAL,TOKYO,JAPAN,43,35.765,140.386,49,40631193
SVO,SHEREMETYEVO,MOSCOW,RUSSIA,193,55.972,37.415,50,40092806
CKG,JIANGBEI,CHONGQING,CHINA,417,29.719,106.641,51,38715210
MSP,MINNEAPOLIS ST PAUL INTERNATIONAL,MINNEAPOLIS,USA,257,44.88,-93.217,53,38034341
GRU,GUARULHOS,SAO PAULO,BRAZIL,750,-23.432,-46.469,54,37774000
BOS,GENERAL EDWARD LAWRENCE LOGAN INTERNATIONAL,BOSTON,USA,6,42.364,-71.005,55,36288042
SGN,TANSONNHAT INTERNATIONAL,HO CHI MINH CITY,VIET NAM,11,10.82,106.662,56,35900000
DOH,DOHA INTERNATIONAL,DOHA,QATAR,11,25.261,51.565,57,35867252
HGH,XIAOSHAN,HANGZHOU,CHINA,8,30.228,120.432,58,35570411
DTW,DETROIT METRO WAYNE CO,DETROIT,USA,197,42.212,-83.353,59,34701497
JED,KING ABDULAZIZ INTERNATIONAL,JEDDAH,SAUDI ARABIA,15,21.679,39.156,60,33917282
MEL,MELBOURNE INTERNATIONAL,MELBOURNE,AUSTRALIA,133,-37.673,144.843,61,33704854
FLL,FORT LAUDERDALE HOLLYWOOD INTERNATIONAL,FORT LAUDERDALE,USA,3,26.072,-80.153,62,32511053
ORL,EXECUTIVE,ORLANDO,USA,35,28.545,-81.333,63,32042475
BOG,ELDORADO INTERNATIONAL,BOGOTA,COLOMBIA,2549,4.701,-74.147,65,30989932
CJU,JEJU INTERNATIONAL,CHEJU,KOREA,36,33.511,126.493,67,29846712
LGA,LA GUARDIA,NEW YORK,USA,7,40.777,-73.872,68,29786769
PHL,PHILADELPHIA INTERNATIONAL,PHILADELPHIA,USA,12,39.872,-75.241,69,29585754
DUB,DUBLIN,DUBLIN,IRELAND,74,53.421,-6.27,70,29582321
ZRH,ZURICH,ZURICH,SWITZERLAND,432,47.465,8.549,71,29396094
CPH,KASTRUP,COPENHAGEN,DENMARK,6,55.618,12.656,72,29177833
PMI,PALMA DE MALLORCA,PALMA DE MALLORCA,SPAIN,3,39.55,2.733,74,27970655
MAN,MANCHESTER,MANCHESTER,ENGLAND,79,53.354,-2.275,75,27901708
OSL,OSLO GARDERMOEN,OSLO,NORWAY,208,60.194,11.1,76,27482315
LIS,LISBOA,LISBON,PORTUGAL,114,38.781,-9.136,77,26669755
ARN,ARLANDA,STOCKHOLM,SWEDEN,38,59.652,17.919,78,26642034
BWI,BALTIMORE WASHINGTON INTERNATIONAL,BALTIMORE,USA,45,39.175,-76.668,79,26369411
AYT,ANTALYA,ANTALYA,TURKEY,54,36.901,30.792,80,25931659
STN,STANSTED,LONDON,ENGLAND,107,51.885,0.235,81,25904573
NKG,LU KOU AIRPORT,NANJING,CHINA,15,31.74,118.86,82,25822936
GMP,GIMPO,SEOUL,KOREA,18,37.558,126.791,83,25267408
BLR,BANGALORE,BANGALORE,INDIA,889,12.95,77.668,84,25047272
RUH,KING KHALED INTERNATIONAL,RIYADH,SAUDI ARABIA,625,24.957,46.699,85,25038000
BRU,BRUSSELS NATL,BRUSSELS,BELGIUM,57,50.902,4.499,86,24783911
DUS,DUSSELDORF,DUESSELDORF,GERMANY,45,51.289,6.767,87,24640564
XMN,GAOQI,XIAMEN,CHINA,18,24.544,118.127,88,24485239
VIE,SCHWECHAT,VIENNA,AUSTRIA,183,48.11,16.57,89,24392805
CGO,XINZHENG,ZHENGZHOU,CHINA,151,34.519,113.841,90,24299073
SLC,SALT LAKE CITY INTERNATIONAL,SALT LAKE CITY,USA,1289,40.788,-111.978,91,24198816
YVR,VANCOUVER INTERNATIONAL,VANCOUVER,CANADA,5,49.195,-123.182,92,24166122
DCA,RONALD REAGAN WASHINGTON NATIONAL,WASHINGTON,USA,5,38.852,-77.037,93,23928248
CSX,HUANGHUA,CHANGCHA,CHINA,67,28.189,113.219,94,23764820
AUH,ABU DHABI INTERNATIONAL,ABU DHABI,UNITED ARAB EMIRATES,27,24.433,54.651,95,23760561
CUN,CANCUN INTERNATIONAL,CANCUN,MEXICO,7,21.036,-86.877,96,23601509
FUK,FUKUOKA,FUKUOKA,JAPAN,10,33.586,130.45,97,23484678
TAO,LIUTING,QINGDAO,CHINA,10,36.263,120.375,98,23210530
BNE,BRISBANE INTERNATIONAL,BRISBANE,AUSTRALIA,4,-27.384,153.118,99,23205702
WUH,TIANHE,WUHAN,CHINA,36,30.784,114.208,100,23129400
HAN,NOIBAI INTERNATIONAL,HANOI,VIET NAM,12,21.222,105.806,101,23068227
CTS,CHITOSE INTERNATIONAL AIRPORT,SAPPORO,JAPAN,25,42.775,141.692,102,22916914
IAD,WASHINGTON DULLES INTERNATIONAL,WASHINGTON,USA,96,38.944,-77.456,103,22892504
DPS,BALI INTERNATIONAL,DENPASAR,INDONESIA,5,-8.748,115.167,104,22863647
MDW,CHICAGO MIDWAY INTERNATIONAL,CHICAGO,USA,189,41.786,-87.752,106,22460236
SCL,ARTURO MERINO BENITEZ INTERNATIONAL,SANTIAGO,CHILE,474,-33.393,-70.786,107,22316093
SAN,SAN DIEGO INTERNATIONAL LINDBERGH FLD,SAN DIEGO,USA,5,32.733,-117.189,108,22173493
MXP,MALPENSA,MILANO,ITALY,234,45.631,8.728,109,22169167
LIM,JORGE CHAVEZ INTERNATIONAL,LIMA,PERU,35,-12.022,-77.114,110,22046042
SUB,JUANDA,SURABAYA,INDONESIA,3,-7.38,112.787,111,21882335
CGH,CONGONHAS,SAO PAULO,BRAZIL,802,-23.627,-46.655,112,21859453
URC,DIWOPU,URUMQI,CHINA,649,43.907,87.474,114,21500901
JNB,JOHANNESBURG INTERNATIONAL,JOHANNESBURG,SOUTH AFRICA,1695,-26.139,28.246,115,21180060
TLV,BEN GURION,TEL-AVIV,ISRAEL,42,32.009,34.877,117,20781226
TSN,BINHAI,TIANJIN,CHINA,3,39.124,117.346,118,20711697
OKA,NAHA,NAHA,JAPAN,4,26.196,127.646,119,20569935
TXL,TEGEL,BERLIN,GERMANY,38,52.559,13.287,120,20460688
CCU,NETAJI SUBHASH CHANDRA BOSE INTERNATIONAL,CALCUTTA,INDIA,7,22.655,88.447,121,20167698
HNL,HONOLULU INTERNATIONAL,HONOLULU,USA,4,21.316,-157.927,122,19950125
TPA,TAMPA INTERNATIONAL,TAMPA,USA,8,27.975,-82.533,123,19624284
MAA,CHENNAI INTERNATIONAL,MADRAS,INDIA,17,12.994,80.18,124,19599438
PDX,PORTLAND INTERNATIONAL,PORTLAND,USA,10,45.589,-122.597,125,19080454
AKL,AUCKLAND INTERNATIONAL,AUCKLAND,NEW ZEALAND,8,-37.008,174.792,126,19020573
HEL,HELSINKI VANTAA,HELSINKI,FINLAND,55,60.32,24.956,127,18892386
HRB,TAIPING,HARBIN,CHINA,139,45.623,126.25,128,18810317
AGP,MALAGA,MALAGA,SPAIN,16,36.674,-4.499,129,18628876
YUL,MONTREAL INTERNATIONAL DORVAL,MONTREAL,CANADA,36,45.468,-73.741,130,18160223
VKO,VNUKOVO,MOSCOW,RUSSIA,210,55.591,37.261,131,18139000
HAM,HAMBURG,HAMBURG,GERMANY,17,53.63,9.988,133,17622997
DLC,ZHOUSHUIZI,DALIAN,CHINA,33,38.966,121.538,134,17503810
THR,MEHRABAD INTERNATIONAL,TEHERAN,IRAN,1208,35.689,51.313,135,17464216
GVA,GENEVA COINTRIN,GENEVA,SWITZERLAND,431,46.238,6.109,136,17351816
HYD,HYDERABAD,HYDERABAD,INDIA,531,17.452,78.461,138,17148069
BSB,PRESIDENTE JUSCELINO KUBITSCHEK,BRASILIA,BRAZIL,1061,-15.862,-47.913,139,16912680
HKT,PHUKET INTERNATIONAL,PHUKET,THAILAND,25,8.113,98.317,140,16855637
PUS,GIMHAE INTERNATIONAL,KIMHAE,KOREA,4,35.179,128.938,141,16403541
YYC,CALGARY INTERNATIONAL,CALGARY,CANADA,1085,51.114,-114.02,142,16275862
GIG,GALEAO ANTONIO CARLOS JOBIM,RIO DE JANEIRO,BRAZIL,9,-22.809,-43.244,143,16243253
LED,PULKOVO,ST. PETERSBURG,RUSSIA,25,59.8,30.265,144,16125520
ESB,ESENBOGA,ANKARA,TURKEY,953,40.128,32.995,145,15845878
LTN,LUTON,LONDON,ENGLAND,161,51.874,-0.368,146,15799219
WAW,OKECIE,WARSAW,POLAND,111,52.166,20.967,147,15730330
PTY,TOCUMEN INTERNATIONAL,PANAMA CITY,PANAMA,42,9.071,-79.383,148,15616065
DAL,DALLAS LOVE FLD,DALLAS,USA,149,32.847,-96.852,149,15562738
PRG,RUZYNE,PRAGUE,CZECH REPUBLIC,381,50.101,14.26,150,15415001
STL,LAMBERT ST LOUIS INTERNATIONAL,ST. LOUIS,USA,185,38.748,-90.36,151,14730656
ITM,OSAKA INTERNATIONAL,OSAKA,JAPAN,16,34.785,135.438,152,14541936
BNA,NASHVILLE INTERNATIONAL,NASHVILLE,USA,183,36.124,-86.678,154,14134448
NNG,WUXU,NANNING,CHINA,129,22.608,108.172,155,13915542
AUS,AUSTIN BERGSTROM INTERNATIONAL,AUSTIN,USA,166,30.194,-97.67,156,13889305
AEP,AEROPARQUE JORGE NEWBERY,BUENOS AIRES,ARGENTINA,6,-34.559,-58.416,157,13797710
PER,PERTH INTERNATIONAL,PERTH,AUSTRALIA,21,-31.94,115.967,158,13759170
ALC,ALICANTE,ALICANTE,SPAIN,44,38.282,-0.558,159,13713061
HOU,WILLIAM P HOBBY,HOUSTON,USA,15,29.645,-95.279,160,13435672
EDI,EDINBURGH,EDINBURGH,UK,42,55.95,-3.373,161,13432485
NCE,COTE D AZUR,NICE,FRANCE,4,43.661,7.218,162,13304782
BUD,FERIHEGY,BUDAPEST,HUNGARY,151,47.437,19.256,163,13097239
LPA,GRAN CANARIA,GRAN CANARIA,CANARY ISLANDS,24,27.932,-15.386,164,13092117
OAK,METROPOLITAN OAKLAND INTERNATIONAL,OAKLAND,USA,2,37.721,-122.221,165,13072245
BHX,BIRMINGHAM,BIRMINGHAM,ENGLAND,100,52.454,-1.748,166,12983436
TYN,WUSU,TAIYUAN,CHINA,785,37.747,112.629,167,12980259
SXF,SCHONEFELD,BERLIN,GERMANY,48,52.38,13.523,168,12865315
ADB,ADNAN MENDERES,IZMIR,TURKEY,126,38.292,27.157,169,12823701
LHW,WRIGHT AAF,WRIGHT,USA,15,31.889,-81.562,170,12816443
GDL,DON MIGUEL Y HIDALGO INTERNATIONAL,GUADALAJARA,MEXICO,1528,20.522,-103.311,171,12808000
OTP,OTOPENI,BUCHAREST,ROMANIA,96,44.574,26.103,172,12804191
SJC,NORMAN Y MINETA SAN JOSE INTERNATIONAL,SAN JOSE,USA,18,37.362,-121.929,173,12480232
FOC,CHANGLE,FUZHOU,CHINA,15,25.933,119.662,174,12469235
CGN,KOLN BONN,COLOGNE,GERMANY,93,50.866,7.143,175,12384223
BGY,BERGAMO ORIO AL SERIO,BERGAMO,ITALY,238,45.674,9.704,176,12336137
MSY,LOUIS ARMSTRONG NEW ORLEANS INTERNATIONAL,NEW ORLEANS,USA,2,29.993,-90.258,178,12009512
UPG,HASANUDDIN,UJUNG PANDANG,INDONESIA,15,-5.062,119.554,180,11653387
RDU,RALEIGH DURHAM INTERNATIONAL,RALEIGH-DURHAM,USA,133,35.877,-78.787,181,11653086
MCI,KANSAS CITY INTERNATIONAL,KANSAS CITY,USA,313,39.297,-94.714,182,11503936
SHJ,SHARJAH INTERNATIONAL,SHARJAH,UNITED ARAB EMIRATES,34,25.328,55.517,183,11360000
TFS,TENERIFE SUR,TENERIFE,CANARY ISLANDS,64,28.044,-16.572,184,11249327
KHN,NANCHANG AIRPORT,NANCHANG,CHINA,0,28.6,115.917,185,11212161
CAI,CAIRO INTERNATIONAL,CAIRO,EGYPT,117,30.122,31.406,186,11081892
STR,STUTTGART,STUTTGART,GERMANY,389,48.69,9.222,188,10962247
SMF,SACRAMENTO INTERNATIONAL,SACRAMENTO,USA,9,38.695,-121.591,189,10912097
DAD,DANANG INTERNATIONAL,DANANG,VIET NAM,11,16.044,108.199,190,10860235
OPO,PORTO,PORTO,ACORES,70,41.248,-8.681,191,10787000
CPT,CAPE TOWN INTERNATIONAL,CAPE TOWN,SOUTH AFRICA,47,-33.965,18.602,192,10693063
KBP,BORYSPIL,KIEV,RUSSIA,131,50.345,30.895,193,10554757
SNA,JOHN WAYNE ARPT ORANGE CO,SANTA ANA,USA,18,33.676,-117.868,196,10423578
VCE,VENEZIA TESSERA,VENICE,ITALY,3,45.505,12.352,197,10371380
LYS,SAINT EXUPERY,LYON,FRANCE,251,45.726,5.091,199,10280192
NGO,NAGOYA,NAGOYA,JAPAN,16,35.255,136.924,202,10177713
CNF,TANCREDO NEVES,BELO HORIZONTE,BRAZIL,828,-19.634,-43.969,203,10164077
CEB,COTABATO,CEBU,PHILIPPINES,58,7.165,124.21,204,10050940
GLA,GLASGOW,GLASGOW,UK,8,55.872,-4.433,205,9897825
MTY,GENERAL MARIANO ESCOBEDO INTERNATIONAL,MONTERREY,MEXICO,388,25.778,-100.107,206,9771630
HFE,LUOGANG,HEFEI,CHINA,29,31.78,117.298,207,9690716
LIN,LINATE,MILAN,ITALY,108,45.445,9.277,208,9548363
NGB,LISHE,NINBO,CHINA,4,29.825,121.465,210,9390527
CMN,MOHAMMED V,CASABLANCA,MOROCCO,200,33.368,-7.588,211,9357427
VCP,VIRACOPOS,CAMPINAS,BRAZIL,662,-23.008,-47.134,212,9332631
TLS,BLAGNAC,TOULOUSE,FRANCE,153,43.629,1.364,214,9264611
SDU,SANTOS DUMONT,RIO DE JANEIRO,BRAZIL,4,-22.91,-43.163,215,9247185
CLE,CLEVELAND HOPKINS INTERNATIONAL,CLEVELAND,USA,242,41.412,-81.85,216,9140445
CTA,CATANIA FONTANAROSSA,CATANIA,ITALY,13,37.467,15.066,217,9120913
SAT,SAN ANTONIO INTERNATIONAL,SAN ANTONIO,USA,247,29.534,-98.47,218,9050000
MRS,PROVENCE,MARSEILLE,FRANCE,23,43.436,5.214,219,9002086
PIT,PITTSBURGH INTERNATIONAL,PITTSBURGH (PENNSYLVA),USA,367,40.491,-80.233,220,8988016
ADD,BOLE INTERNATIONAL,ADDIS ABABA,ETHIOPIA,2323,8.977,38.8,221,8900000
RSW,SOUTHWEST FLORIDA INTERNATIONAL,FORT MYERS,USA,10,26.536,-81.755,223,8842549
IND,INDIANAPOLIS INTERNATIONAL,INDIANAPOLIS,USA,243,39.717,-86.294,224,8770308
FAO,FARO,FARO,ACORES,8,37.014,-7.966,225,8727000
JOG,ADI SUTJIPTO,YOGYAKARTA,INDONESIA,107,-7.788,110.432,226,8634369
KEF,KEFLAVIK NAS,KEFLAVIK,ICELAND,53,63.985,-22.606,228,8260949
BLQ,BOLOGNA,BOLOGNA,ITALY,38,44.534,11.29,229,8198156
NAP,CAPODICHINO,NAPLES,ITALY,91,40.886,14.291,230,8134492
BRS,BRISTOL,BRISTOL,ENGLAND,190,51.383,-2.719,231,8100000
ADL,ADELAIDE INTERNATIONAL,ADELAIDE,AUSTRALIA,7,-34.945,138.531,232,8090000
POA,SALGADO FILHO,PORTO ALEGRE,BRAZIL,4,-29.994,-51.171,233,8012114
BKI,KOTA KINABALU INTERNATIONAL,KOTA KINABALU,MALAYSIA,4,5.937,116.051,234,8006446
HLP,HALIM PERDANAKUSUMA INTERNATIONAL,JAKARTA,INDONESIA,30,-6.266,106.891,235,7934520
IBZ,IBIZA,IBIZA,SPAIN,7,38.873,1.373,236,7903892
KWL,LIANGJIANG,GUILIN,CHINA,174,25.218,110.039,238,7862015
CVG,CINCINNATI NORTHERN KENTUCKY INTERNATIONAL,CINCINNATI,USA,274,39.046,-84.662,239,7842149
PNQ,PUNE,PUNE,INDIA,592,18.582,73.919,240,7837331
YEG,EDMONTON INTERNATIONAL,EDMONTON,CANADA,724,53.31,-113.58,241,7807384
REC,GUARARAPES,RECIFE,BRAZIL,11,-8.126,-34.923,242,7776881
SSA,DEPUTADO LUIS EDUARDO MAGALHAES,SALVADOR,BRAZIL,20,-12.911,-38.331,243,7735685
CRL,BRUSSELS SOUTH,CHARLEROI,BELGIUM,188,50.459,4.454,244,7698767
BPN,SEPINGGAN,BALIKPAPAN,INDONESIA,4,-1.268,116.894,245,7510090
ALG,HOUARI BOUMEDIENE,ALGIER,ALGERIA,25,36.691,3.215,246,7500000
CMH,PORT COLUMBUS INTERNATIONAL,COLUMBUS,USA,249,39.998,-82.892,247,7500000
HER,NIKOS KAZANTZAKIS,HERAKLION,GREECE,36,35.339,25.18,248,7480408
AMD,AHMEDABAD,AHMEDABAD,INDIA,58,23.075,72.632,249,7405282
ACE,LANZAROTE,LANZEROTE,CANARY ISLANDS,15,28.945,-13.605,250,7389025
PEN,PENANG INTERNATIONAL,PENANG,MALAYSIA,4,5.297,100.277,251,7232097
TIJ,GENERAL ABELARDO L RODRIGUEZ INTERNATIONAL,TIJUANA,MEXICO,153,32.541,-116.97,253,7103200
GOI,GOA,GOA,INDIA,57,15.381,73.833,255,6876491
GOT,LANDVETTER,GOTHENBORG,SWEDEN,155,57.663,12.28,256,6758520
VLC,VALENCIA,VALENCIA,SPAIN,69,39.489,-0.481,257,6745394
CWB,AFONSO PENA,CURITIBA,BRAZIL,911,-25.528,-49.176,258,6722058
CHC,CHRISTCHURCH INTERNATIONAL,CHRISTCHURCH,NEW ZEALAND,38,-43.489,172.532,260,6566598
YNT,LAISHAN,YANTAI,CHINA,18,37.402,121.372,261,6503015
SOF,SOFIA,SOFIA,BULGARIA,531,42.695,23.406,262,6206400
KHH,KAOHSIUNG INTERNATIONAL,KAOHSIUNG,TAIWAN,10,22.575,120.351,263,6472085
OOL,GOLD COAST COOLANGATTA,COOLANGATTA,AUSTRALIA,7,-28.164,153.505,264,6457086
BDL,BRADLEY INTERNATIONAL,WINDSOR LOCKS,USA,53,41.939,-72.683,265,6436407
SKG,MAKEDONIA,THESSALONIKI,GREECE,7,40.52,22.971,266,6395523
LOS,LAGOS MURTALA MUHAMMED,LAGOS,NIGERIA,42,6.577,3.321,267,6367478
BTH,HANG NADIM,BATAM,INDONESIA,39,1.121,104.119,268,6355113
PBI,PALM BEACH INTERNATIONAL,WEST PALM BEACH,USA,6,26.683,-80.096,269,6322452
MED,PRINCE MOHAMMAD BIN ABDULAZIZ,MADINAH,SAUDI ARABIA,656,24.553,39.705,270,6300638
BOD,MERIGNAC,BORDEAUX,FRANCE,50,44.828,-0.716,271,6203824
TSA,SUNGSHAN,TAIPEI,TAIWAN,6,25.069,121.552,272,6143445
BGO,BERGEN FLESLAND,BERGEN,NORWAY,51,60.293,5.218,274,6110944
FUE,FUERTEVENTURA,FUERTEVENTURA,CANARY ISLANDS,22,28.453,-13.864,276,6049401
WLG,WELLINGTON INTERNATIONAL,WELLINGTON,NEW ZEALAND,13,-41.327,174.805,277,6049194
MLA,LUQA,MALTA,MALTA,92,35.857,14.478,278,6014548
FOR,PINTO MARTINS INTERNATIONAL,FORTALEZA,BRAZIL,25,-3.776,-38.532,280,5935288
RGN,YANGON INTERNATIONAL,YANGON,MYANMAR,34,16.907,96.133,281,5916597
CIA,CIAMPINO,ROME,ITALY,131,41.799,12.595,282,5885812
HAJ,HANNOVER,HANNOVER,GERMANY,56,52.461,9.685,283,5870104
BFS,ALDERGROVE,BELFAST,NORTH IRELAND,82,54.657,-6.216,284,5844000
KRK,BALICE JP II INTERNATIONAL AIRPORT,KRAKOW,POLAND,242,50.078,19.785,285,5835189
PMO,PALERMO,PALERMO,ITALY,20,38.176,13.091,286,5775274
PMO,BOCCADIFALCO,PALERMO,ITALY,106,38.111,13.313,286,5775274
HAV,JOSE MARTI INTERNATIONAL,HAVANA,CUBA,65,22.989,-82.409,287,5713859
AER,SOCHI,SOCHI,RUSSIA,28,43.446,39.947,288,5691822
TUN,CARTHAGE,TUNIS,TUNISIA,7,36.851,10.227,289,5691037
PLM,SULTAN MAHMUD BADARUDDIN II,PALEMBANG,INDONESIA,12,-2.898,104.701,290,5677234
EIN,EINDHOVEN,EINDHOVEN,NETHERLANDS,23,51.45,5.374,291,5653402
ADA,ADANA,ADANA,TURKEY,20,36.982,35.28,293,5594630
ADA,INCIRLIK AB,ADANA,TURKEY,73,37.002,35.426,293,5594630
JAX,JACKSONVILLE INTERNATIONAL,JACKSONVILLE,USA,10,30.494,-81.688,294,5591886
DUR,DURBAN INTERNATIONAL,DURBAN,SOUTH AFRICA,11,-29.97,30.95,295,5527747
NTE,NANTES ATLANTIQUE,NANTES,FRANCE,28,47.153,-1.611,296,5489899
SVX,KOLTSOVO,SVERDLOVSK,RUSSIA,233,56.741,60.804,297,5404000
NCL,NEWCASTLE,NEWCASTLE,ENGLAND,82,55.038,-1.692,298,5349751
BEG,BEOGRAD,BEOGRAD,YUGOSLAVIA,103,44.818,20.309,299,5343420
RHO,DIAGORAS,RHODOS,GREECE,6,36.405,28.086,300,5301517
PSA,PISA,PISA,ITALY,3,43.684,10.393,301,5233118
KOJ,KAGOSHIMA,KAGOSHIMA,JAPAN,277,31.803,130.719,302,5220710
SIP,SIMFEROPOL,SIMFEROPOL,RUSSIA,195,45.039,33.983,303,5128738
SVQ,SEVILLA,SEVILLA,SPAIN,34,37.418,-5.893,304,5108807
KCH,KUCHING INTERNATIONAL,KUCHING,MALAYSIA,28,1.485,110.346,305,5095193
BIO,BILBAO,BILBAO,SPAIN,43,43.301,-2.911,307,4973712
ANC,TED STEVENS ANCHORAGE INTERNATIONAL,ANCHORAGE,USA,47,61.174,-149.996,308,4966000
ABQ,ALBUQUERQUE INTERNATIONAL SUNPORT,KIRTLAND A.F.B.,USA,1633,35.04,-106.609,309,4958417
LPL,LIVERPOOL,LIVERPOOL,ENGLAND,25,53.334,-2.85,310,4950000
CNS,CAIRNS INTERNATIONAL,CAIRNS,AUSTRALIA,4,-16.886,145.755,311,4898189
EMA,EAST MIDLANDS,EAST MIDLANDS,ENGLAND,94,52.831,-1.328,312,4875791
SWA,WAI SHA AIRPORT,SHANTOU,CHINA,0,23.4,116.683,314,4851015
YOW,OTTAWA MACDONALD CARTIER INTERNATIONAL,OTTAWA,CANADA,114,45.323,-75.669,315,4839677
BUF,BUFFALO NIAGARA INTERNATIONAL,BUFFALO,USA,221,42.94,-78.732,316,4726000
TFN,TENERIFE NORTE,TENERIFE,CANARY ISLANDS,632,28.482,-16.341,317,4704863
BRI,PALESE MACCHIE,BARI,ITALY,54,41.138,16.761,318,4686016
OMA,EPPLEY AFLD,OMAHA,USA,300,41.302,-95.894,319,4611906
GDN,REBIECHOWO,GDANSK,POLAND,149,54.377,18.466,320,4611714
LCY,CITY,LONDON,ENGLAND,6,51.505,0.054,321,4530439
PKU,SULTAN SYARIF KASIM II,PEKANBARU,INDONESIA,32,0.461,101.444,322,4465977
TRD,TRONDHEIM VAERNES,TRONDHEIM,NORWAY,18,63.458,10.94,323,4427733
DLM,DALAMAN,DALAMAN,TURKEY,7,36.713,28.793,324,4377101
SJO,JUAN SANTAMARIA INTERNATIONAL,SAN JOSE,COSTA RICA,921,9.994,-84.209,325,4369333
HDY,HAT YAI INTERNATIONAL,SONGKHLA,THAILAND,28,6.933,100.393,326,4367364
RAK,MENARA,MARRAKECH,MOROCCO,468,31.607,-8.036,327,4359865
JAI,JAIPUR,JAIPUR,INDIA,385,26.824,75.81,328,4345927
YWG,WINNIPEG INTERNATIONAL,WINNIPEG,CANADA,239,49.91,-97.234,329,4305744
LKO,LUCKNOW,LUCKNOW,INDIA,123,26.761,80.886,330,4272024
SRG,ACHMAD YANI,SEMARANG,INDONESIA,4,-6.973,110.375,332,4224295
ONT,ONTARIO INTERNATIONAL,ONTARIO,USA,288,34.056,-117.601,333,4217366
NUE,NURNBERG,NUERNBERG,GERMANY,319,49.499,11.078,334,4186961
SVG,STAVANGER SOLA,STAVANGER,NORWAY,9,58.877,5.638,335,4177673
MUN,MATURIN,MATURIN,VENEZUELA,69,9.749,-63.152,336,4176556
CAG,ELMAS,CAGLIARI,ITALY,4,39.251,9.054,337,4157612
MSQ,MINSK 2,MINSK 2,RUSSIA,204,53.882,28.031,338,4114512
YHZ,HALIFAX INTERNATIONAL,HALIFAX,CANADA,146,44.881,-63.509,339,4083188
LBA,LEEDS BRADFORD,LEEDS,ENGLAND,208,53.866,-1.661,341,4074500
HRG,HURGHADA INTERNATIONAL,HURGHADA,EGYPT,16,27.184,33.798,342,4027291
TRV,THIRUVANANTHAPURAM INTERNATIONAL,TRIVANDRUM,INDIA,5,8.482,76.918,343,4018095
PVD,THEODORE FRANCIS GREEN STATE,PROVIDENCE,USA,17,41.724,-71.428,345,3937947
PDG,TABING,PADANG,INDONESIA,3,-0.876,100.352,346,3937251
KTW,PYRZOWICE,KATOWICE,POLAND,304,50.474,19.08,347,3892941
FLN,HERCILIO LUZ,FLORIANOPOLIS,BRAZIL,6,-27.672,-48.548,349,3843328
MIR,HABIB BOURGUIBA INTERNATIONAL,MONASTIR,TUNISIA,3,35.758,10.755,350,3831924
BDO,HUSEIN SASTRANEGARA,BANDUNG,INDONESIA,741,-6.901,107.576,352,3696175
MDC,SAM RATULANGI,MANADO,INDONESIA,83,1.549,124.926,354,3671997
BDJ,SYAMSUDIN NOOR,BANJARMASIN,INDONESIA,21,-3.442,114.761,355,3613473
MRU,SIR SEEWOOSAGUR RAMGOOLAM INTERNATIONAL,PLAISANCE,MAURITIUS,57,-20.43,57.683,356,3588777
TAE,DAEGU AB,TAEGU,KOREA,36,35.894,128.659,357,3560124
SYZ,SHIRAZ SHAHID DASTGHAIB INTERNATIONAL,SHIRAZ,IRAN,1500,29.539,52.589,360,3530525
KRR,PASHKOVSKY,KRASNODAR,RUSSIA,36,45.035,39.172,361,3498126
ABV,ABUJA NNAMDI AZIKIWE INTERNATIONAL,ABUJA,NIGERIA,343,9.007,7.263,362,3462830
PNK,SUPADIO,PONTIANAK,INDONESIA,4,-0.151,109.404,363,3447254
MAH,MENORCA,MENORCA,SPAIN,91,39.863,4.219,364,3434615
TZX,TRABZON,TRABZON,TURKEY,32,40.995,39.79,365,3361450
MKE,GENERAL MITCHELL INTERNATIONAL,MILWAUKEE,USA,221,42.947,-87.896,366,3350000
BEL,VAL DE CAES,BELEM,BRAZIL,17,-1.379,-48.476,367,3311817
KMJ,KUMAMOTO,KUMAMOTO,JAPAN,196,32.837,130.855,368,3241633
CUZ,VELAZCO ASTETE,CUZCO,PERU,3311,-13.536,-71.939,369,3209153
TBS,LOCHINI,TBILISI,GEORGIA,495,41.669,44.955,371,3164139
SDJ,SENDAI,SENDAI,JAPAN,5,38.139,140.917,372,3152569
JHB,SULTAN ISMAIL,JOHOR BAHRU,MALAYSIA,37,1.641,103.669,373,3124799
NGS,NAGASAKI,NAGASAKI,JAPAN,5,32.922,129.923,374,3110686
ZAG,ZAGREB,ZAGREB,CROATIA,107,45.743,16.069,375,3092047
KOA,KONA INTERNATIONAL AT KEAHOLE,KONA,USA,15,19.739,-156.046,376,3088641
GYN,SANTA GENOVEVA,GOIANIA,BRAZIL,747,-16.631,-49.222,377,3088274
VIX,GOIABEIRAS,VITORIA,BRAZIL,4,-20.256,-40.289,378,3021949
LUX,FINDEL INTERNATIONAL AIRPORT,LUXEMBURG,LUXEMBURG,377,49.626,6.211,379,3020000
CBR,CANBERRA,CANBERRA,AUSTRALIA,576,-35.308,149.194,381,2995470
SAL,EL SALVADOR INTERNATIONAL,SAN SALVADOR,EL SALVADOR,31,13.441,-89.056,382,2984764
KMI,MIYAZAKI,MIYAZAKI,JAPAN,7,31.877,131.448,383,2976563
AWZ,AHWAZ,AHWAZ,IRAN,20,31.337,48.762,384,2939958
KIH,KISH ISLAND,KISH ISLAND,IRAN,31,26.527,53.982,385,2926752
BBI,BHUBANESHWAR,BHUBANESWAR,INDIA,40,20.244,85.818,386,2907867
CCJ,CALICUT,CALICUT,INDIA,101,11.136,75.955,387,2886915
CGB,MARECHAL RONDON,CUIABA,BRAZIL,188,-15.653,-56.117,388,2882450
MYJ,MATSUYAMA,MATSUYAMA,JAPAN,8,33.827,132.7,390,2863239
LGB,LONG BEACH,LONG BEACH,USA,19,33.818,-118.151,391,2852294
LIH,LIHUE,LIHUE,USA,47,21.976,-159.339,392,2832281
SPU,SPLIT,SPLIT,CROATIA,25,43.539,16.298,393,2818176
UFA,UFA,UFA,RUSSIA,137,54.557,55.874,394,2814330
ELP,EL PASO INTERNATIONAL,EL PASO,USA,1207,31.807,-106.378,395,2807734
YTZ,CITY CENTRE,TORONTO,CANADA,77,43.627,-79.396,396,2800000
PAT,PATNA,PATINA,INDIA,52,25.591,85.088,398,2781276
LGK,LANGKAWI INTERNATIONAL,PULAU,MALAYSIA,9,6.33,99.729,399,2767707
ROV,ROSTOV NA DONU,ROSTOV,RUSSIA,86,47.258,39.818,400,2766000
COR,AMBROSIO L V TARAVELLA,CORDOBA,ARGENTINA,489,-31.324,-64.208,401,2762393
KLO,KALIBO,KALIBO,PHILIPPINES,13,11.681,122.378,404,2711036
HIJ,HIROSHIMA,HIROSHIMA,JAPAN,332,34.435,132.922,405,2669210
MAO,EDUARDO GOMES INTERNATIONAL,MANAUS,BRAZIL,81,-3.039,-60.05,407,2645205
SCQ,SANTIAGO,SANTIAGO,SPAIN,370,42.896,-8.415,408,2644925
KZN,KAZAN,KAZAN,RUSSIA,127,55.608,49.277,409,2623423
GUA,LA AURORA,GUATEMALA CITY,GUATEMALA,1510,14.583,-90.528,410,2579123
ACC,KOTOKA INTERNATIONAL,ACCRA,GHANA,63,5.603,-0.168,411,2547527
BRE,BREMEN,BREMEN,GERMANY,5,53.047,8.787,412,2540084
DJJ,SENTANI,JAYAPURA,INDONESIA,89,-2.577,140.516,413,2533445
DAR,DAR ES SALAAM,DAR ES SALAAM,TANZANIA,56,-6.878,39.203,418,2496394
GZT,OGUZELI,GAZIANTEP,TURKEY,706,36.948,37.479,419,2480979
HHN,FRANKFURT HAHN,HAHN,GERMANY,503,49.95,7.264,420,2471900
HBA,HOBART,HOBART,AUSTRALIA,4,-42.836,147.51,421,2440792
LAD,LUANDA 4 DE FEVEREIRO,LUANDA,ANGOLA,75,-8.858,13.231,423,2430794
NAT,AUGUSTO SEVERO,NATAL,BRAZIL,52,-5.911,-35.248,424,2403135
ALB,ALBANY INTERNATIONAL,ALBANY,USA,87,42.748,-73.803,426,2393506
LEJ,LEIPZIG HALLE,LEIPZIG,GERMANY,142,51.424,12.236,427,2361534
UTH,UDON THANI,UDON THANI,THAILAND,177,17.386,102.788,428,2350005
DBV,DUBROVNIK,DUBROVNIK,CROATIA,161,42.561,18.268,430,2323065
MZG,MAKUNG,MAKUNG,TAIWAN,32,23.569,119.628,431,2320249
ISG,ISHIGAKI,ISHIGAKI,JAPAN,29,24.344,124.187,432,2308065
RUN,ST DENIS GILLOT,ST.-DENIS,REUNION ISLAND,21,-20.887,55.51,434,2293242
BUR,BURBANK GLENDALE PASADENA,BURBANK,USA,238,34.201,-118.359,435,2282000
IDR,DEVI AHILYABAI HOLKAR,INDORE,INDIA,564,22.722,75.801,436,2256760
SXR,SRINAGAR,SRINAGAR,INDIA,1664,33.987,74.774,438,2227863
MYY,MIRI,MIRI,MALAYSIA,17,4.325,113.988,439,2188048
MRV,MINERALNYYE VODY,MINERALNYE VODY,RUSSIA,321,44.225,43.082,440,2180178
VVO,KNEVICHI,VLADIVOSTOK,RUSSIA,14,43.399,132.151,441,2179000
KRT,KHARTOUM,KHARTOUM,SUDAN,385,15.589,32.553,442,2178097
IGU,CATARATAS INTERNATIONAL,FOZ DO IGUACU,BRAZIL,240,-25.596,-54.487,443,2177298
CJB,COIMBATORE,COIMBATORE,INDIA,403,11.031,77.044,444,2175212
DKR,LEOPOLD SEDAR SENGHOR INTERNATIONAL,DAKAR,SENEGAL,26,14.739,-17.49,445,2114269
ATQ,AMRITSAR,AMRITSAR,INDIA,231,31.707,74.799,446,2087118
DIY,DIYARBAKIR,DIYABAKIR,TURKEY,687,37.894,40.201,447,2071089
ABJ,ABIDJAN FELIX HOUPHOUET BOIGNY INTERNATIONAL,ABIDJAN,IVORY COAST,7,5.26,-3.926,448,2070000
MCZ,ZUMBI DOS PALMARES,MACEIO,BRAZIL,118,-9.51,-35.793,449,2068245
IXE,MANGALORE,MANGALORE,INDIA,102,12.96,74.893,451,2054005
KHV,NOVY,KHABAROVSK,RUSSIA,75,48.528,135.188,452,2051000
IXB,BAGDOGRA,BAGHDOGRA,INDIA,126,26.681,88.328,453,2040765
IKT,IRKUTSK,IRKUTSK,RUSSIA,510,52.267,104.395,455,2010000
DTM,DORTMUND,DORTMUND,GERMANY,130,51.518,7.612,456,2000695
PSP,PALM SPRINGS INTERNATIONAL,PALM SPRINGS,USA,145,33.829,-116.507,457,1998206
KBR,SULTAN ISMAIL PETRA,KOTA BAHRU,MALAYSIA,5,6.166,102.294,458,1988212
NAN,NADI INTERNATIONAL,NANDI,FIJI,18,-17.754,177.443,459,1984898
ASR,ERKILET,KAYSERI,TURKEY,1069,38.77,35.495,460,1980247
NAG,NAGPUR,NAGPUR,INDIA,309,21.092,79.047,461,1976707
SYR,SYRACUSE HANCOCK INTERNATIONAL,SYRACUSE,USA,129,43.111,-76.106,462,1951370
GRO,GIRONA,GERONA,SPAIN,143,41.901,2.76,463,1946816
ILO,ILOILO,ILOILO,PHILIPPINES,9,10.713,122.545,464,1943719
TBZ,TABRIZ INTERNATIONAL,TABRIZ,IRAN,1360,38.133,46.235,465,1942726
YYJ,VICTORIA INTERNATIONAL,VICTORIA,CANADA,20,48.647,-123.426,466,1934842
VNS,VARANASI,VARANASI,INDIA,81,25.452,82.859,467,1916454
PGK,DEPATI AMIR,PANGKAL PINANG,INDONESIA,33,-2.163,106.139,468,1914006
YLW,KELOWNA,KELOWNA,CANADA,430,49.956,-119.378,469,1893470
ZQN,QUEENSTOWN,QUEENSTOWN INTERNATIONAL,NEW ZEALAND,357,-45.021,168.739,470,1892443
ORN,ES SENIA,ORAN,ALGERIA,90,35.624,-0.621,472,1851910
OIT,OITA,OITA,JAPAN,6,33.479,131.737,473,1849834
PDL,PONTA DELGADA,PONTA DELGADA,ACORES,79,37.741,-25.698,474,1849000
KMQ,KOMATSU,KANAZAWA,JAPAN,11,36.394,136.408,475,1844117
SXM,PRINCESS JULIANA INTERNATIONAL,PHILIPSBURG,ANTILLES,4,18.041,-63.109,478,1829543
TAK,TAKAMATSU,TAKAMATSU,JAPAN,186,34.214,134.016,479,1809820
PWM,PORTLAND INTERNATIONAL JETPORT,PORTLAND,USA,23,43.646,-70.309,483,1785649
KGD,KHRABROVO,KALININGRAD,RUSSIA,14,54.89,20.592,484,1780000
CGY,CAGAYAN DE ORO,LADAG,PHILIPPINES,186,8.414,124.611,485,1776353
HKD,HAKODATE,HAKODATE,JAPAN,47,41.77,140.822,487,0
SGC,SURGUT,SURGUT,RUSSIA,61,61.25,73.5,489,1723312
MDZ,EL PLUMERILLO,MENDOZA,ARGENTINA,705,-32.832,-68.793,490,1717419
DRS,DRESDEN,DRESDEN,GERMANY,231,51.133,13.767,493,1706563
LJU,LJUBLJANA,LJUBLIANA,SLOVENIA,389,46.224,14.457,495,1683045
YQB,QUEBEC JEAN LESAGE INTERNATIONAL,QUEBEC,CANADA,75,46.788,-71.398,496,1670880
ZTH,ZAKINTHOS DIONYSIOS SOLOMOS,ZAKYNTHOS,GREECE,5,37.75,20.882,497,1659646
PNS,PENSACOLA RGNL,PENSACOLA,USA,37,30.473,-87.187,498,1650000
PPS,PUERTO PRINCESA,PUERTO PRINCESA,PHILIPPINES,22,9.742,118.759,499,1644003
DJB,SULTAN THAHA,JAMBI,INDONESIA,25,-1.638,103.644,500,1639873
AQP,RODRIGUEZ BALLON,AREQUIPA,PERU,2593,-16.341,-71.583,501,1634090
PLZ,PORT ELIZABETH,PORT ELIZABETH,SOUTH AFRICA,69,-33.985,25.617,503,1620705
KWJ,GWANGJU,KWANGJU,KOREA,15,35.126,126.81,504,1613775
POZ,LAWICA,POZNAN,POLAND,94,52.421,16.826,505,1611074
SLZ,MARECHAL CUNHA MACHADO,SAO LUIS,BRAZIL,55,-2.589,-44.236,506,1601836
NVT,NAVEGANTES ITAJAI,NAVEGANTES,BRAZIL,6,-26.88,-48.651,508,1588921
AGA,INEZGANE,AGADIR,MOROCCO,28,30.381,-9.546,509,1544160
CGR,CAMPO GRANDE,CAMPO GRANDE,BRAZIL,559,-20.469,-54.672,510,1536838
MGA,MANAGUA INTERNATIONAL,MANAGUA,NICARAGUA,60,12.141,-86.168,511,1533034
EBB,ENTEBBE INTERNATIONAL,ENTEBBE,UGANDA,1153,0.042,32.443,512,1530031
SOC,ADI SUMARMO WIRYOKUSUMO,SOLO CITY,INDONESIA,129,-7.516,110.757,513,1525013
KOE,EL TARI,KUPANG,INDONESIA,103,-10.171,123.671,514,1523342
CEK,BALANDINO,CHELYABINSK,RUSSIA,235,55.303,61.507,515,1517000
NST,CHA IAN,NAKHON SI THAMMARAT,THAILAND,14,8.471,99.956,517,1503463
DLA,DOUALA,DOUALA,CAMEROON,11,4.006,9.719,518,1500000
BCD,BACOLOD,BACOLOD,PHILIPPINES,8,10.643,122.929,519,1498741
TSV,TOWNSVILLE,TOWNSVILLE,AUSTRALIA,6,-19.253,146.765,520,1497946
SBW,SIBU,SIBU,MALAYSIA,36,2.264,111.983,521,1497412
HPN,WESTCHESTER CO,WHITE PLAINS,USA,134,41.067,-73.707,522,1468851
YXE,SASKATOON J G DIEFENBAKER INTERNATIONAL,SASKATOON,CANADA,504,52.171,-106.7,523,1462751
OVD,ASTURIAS,AVILES,SPAIN,127,43.563,-6.034,525,1407217
VAN,VAN,VAN,TURKEY,1669,38.468,43.332,526,1394328
OKJ,OKAYAMA,OKAYAMA,JAPAN,246,34.757,133.856,527,1391723
JPA,INTL. PRES. CASTRO PINTO,JOAO PESSOA,BRAZIL,502,-7.27,-35.896,528,1387496
TWU,TAWAU,TAWAU,MALAYSIA,18,4.313,118.122,529,1374893
TRZ,TIRUCHIRAPPALLI,TIRUCHCHIRAPPALLI,INDIA,88,10.765,78.709,531,1359447
DJE,ZARZIS,DJERBA,TUNISIA,6,33.875,10.775,532,1354502
KCZ,KOCHI,KOCHI,JAPAN,10,33.544,133.671,533,1350930
PEE,BOLSHOYE SAVINO,PERM,RUSSIA,124,57.917,56.026,534,1338373
MMY,MIYAKEJIMA,MIYAKE JIMA,JAPAN,21,34.072,139.56,535,1335697
MMY,MIYAKO,MIYAKO,JAPAN,46,24.783,125.295,535,1335697
ITO,HILO INTERNATIONAL,HILO,USA,12,19.72,-155.049,537,1327245
AMQ,PATTIMURA,AMBON,INDONESIA,11,-3.709,128.09,538,1318041
KKJ,KITAKYUSHU,KITAKYUSHU,JAPAN,6,33.836,130.947,539,1317504
MBA,MOI INTERNATIONAL,MOMBASA,KENYA,61,-4.035,39.594,540,1313168
SPC,LA PALMA,SANTA CRUZ DE LA PALMA,SPAIN,33,28.626,-17.756,541,1302485
MDL,MANDALAY INTERNATIONAL,MANDALAY,MYANMAR,92,21.702,95.978,542,1290000
BND,BANDAR ABBASS INTERNATIONAL,BANDAR ABBAS,IRAN,7,27.218,56.378,543,1289063
BRC,SAN CARLOS DE BARILOCHE,SAN CARLOS DE BARILOCH,ARGENTINA,847,-41.151,-71.157,544,1279524
LST,LAUNCESTON,LAUNCESTON,AUSTRALIA,172,-41.545,147.214,545,1272198
AXT,AKITA,AKITA,JAPAN,96,39.616,140.219,547,1238082
AJU,SANTA MARIA,ARACAJU,BRAZIL,8,-10.984,-37.07,548,1225789
PHC,PORT HARCOURT INTERNATIONAL,PORT HARTCOURT,NIGERIA,25,5.015,6.949,549,1223807
YQR,REGINA INTERNATIONAL,REGINA,CANADA,578,50.432,-104.666,550,1219311
MJV,MURCIA SAN JAVIER,MURCIA,SPAIN,4,37.775,-0.812,551,1196605
ROC,GREATER ROCHESTER INTERNATIONAL,ROCHESTER,USA,171,43.119,-77.672,553,1186002
IXA,AGARTALA,AGARTALA,INDIA,15,23.889,91.241,554,1184867
TAC,DANIEL Z ROMUALDEZ,TACLOBAN,PHILIPPINES,4,11.227,125.028,555,1182951
LIR,DANIEL ODUBER QUIROS INTERNATIONAL,LIBERIA,COSTA RICA,83,10.593,-85.544,556,1182123
ASU,SILVIO PETTIROSSI INTERNATIONAL,ASUNCION,PARAGUAY,90,-25.24,-57.519,557,1180111
IXJ,JAMMU,JAMMU,INDIA,314,32.69,74.838,560,1159937
BTV,BURLINGTON INTERNATIONAL,BURLINGTON,USA,103,44.472,-73.153,561,1151000
AKJ,ASAHIKAWA,ASAHIKAWA,JAPAN,220,43.671,142.447,562,1148825
LCG,A CORUNA,LA CORUNA,SPAIN,101,43.302,-8.377,564,1141242
THE,SENADOR PETRONIO PORTELLA,TERESINA,BRAZIL,67,-5.06,-42.823,567,1104451
BDQ,VADODARA,BARODA,INDIA,39,22.336,73.226,568,1103981
UDI,UBERLANDIA,UBERLANDIA,BRAZIL,944,-18.883,-48.226,569,1102569
SLA,SALTA,SALTA,ARGENTINA,1243,-24.856,-65.486,570,1095104
SID,AMILCAR CABRAL INTERNATIONAL,AMILCAR CABRAL,CAPE VERDE ISLANDS,54,16.741,-22.949,571,1093059
UDR,UDAIPUR,UDAIPUR,INDIA,510,24.617,73.913,572,1089899
ERZ,ERZURUM,ERZURUM,TURKEY,1757,39.956,41.17,573,1085117
ZAM,ZAMBOANGA INTERNATIONAL,ZAMBOANGA,PHILIPPINES,11,6.922,122.059,574,1076000
TNG,IBN BATOUTA,TANGER,MOROCCO,19,35.727,-5.917,575,1070247
KYA,KONYA,KONYA,TURKEY,1031,37.979,32.562,576,1067753
MCX,UYTASH,MAKHACHKALA,RUSSIA,4,42.817,47.652,577,1067685
VGO,VIGO,VIGO,SPAIN,261,42.232,-8.627,578,1065595
XRY,JEREZ,JEREZ,SPAIN,29,36.744,-6.06,579,1046251
IXR,BIRSA MUNDA,RANCHI,INDIA,655,23.315,85.321,580,1035740
REU,REUS,REUS,SPAIN,72,41.147,1.167,581,1022964
VOG,GUMRAK,VOLGOGRAD,RUSSIA,147,48.782,44.345,582,1013985
LEI,ALMERIA,ALMERIA,SPAIN,22,36.844,-2.37,583,1007446
TRK,JUWATA,TARAKEN,INDONESIA,7,3.326,117.566,584,1002484
NSN,NELSON,NELSON,NEW ZEALAND,6,-41.298,173.221,585,1000373
TKS,TOKUSHIMA,TOKUSHIMA,JAPAN,8,34.133,134.606,586,1000121
IGR,CATARATAS DEL IGUAZU,IGUAZU FALLS,ARGENTINA,280,-25.738,-54.473,587,998460
AOJ,AOMORI,AOMORI,JAPAN,203,40.734,140.691,588,992696
UUS,KHOMUTOVO,YUZHNO-SAKHALINSK,RUSSIA,18,46.889,142.717,589,985200
IXM,MADURAI,MADURAI,INDIA,141,9.834,78.093,591,978919
DUD,DUNEDIN,DUNEDIN,NEW ZEALAND,2,-45.928,170.198,592,973089
PIE,ST PETERSBURG CLEARWATER INTERNATIONAL,ST. PETERSBURG,USA,4,27.911,-82.687,594,965000
OMS,TSENTRALNY,OMSK,RUSSIA,96,54.967,73.31,595,963600
FMO,MUNSTER OSNABRUCK,MUENSTER/OSNABRUECK,GERMANY,49,52.134,7.685,596,962348
SJJ,SARAJEVO,SARAJEVO,BOSNIA-HERCEGOVINA,521,43.824,18.331,597,957971
EZS,ELAZIG,ELAZIG,TURKEY,893,38.607,39.291,598,955988
TGG,SULTAN MAHMUD,KUALA TERENGGANU,MALAYSIA,7,5.382,103.103,599,943660
SDR,SANTANDER,SANTANDER,SPAIN,5,43.427,-3.82,601,937641
ZNZ,ZANZIBAR,ZANZIBAR,TANZANIA,17,-6.222,39.225,602,934337
IQT,CORONEL FAP FRANCISCO SECADA VIGNETTA,IQUITOS,PERU,94,-3.785,-73.309,603,934031
MKY,MACKAY,MACKAY,AUSTRALIA,6,-21.172,149.18,604,928354
UBJ,YAMAGUCHI UBE,YAMAGUCHI,JAPAN,8,33.93,131.279,605,918238
NQN,PRESIDENTE PERON,NEUQUEN,ARGENTINA,274,-38.949,-68.156,608,907980
YKS,YAKUTSK,YAKUTSK,RUSSIA,100,62.093,129.771,610,902463
GRX,ARMILLA,GRANADA,SPAIN,701,37.133,-3.636,611,901961
GRX,GRANADA,GRANADA,SPAIN,567,37.189,-3.777,611,901961
POM,PORT MORESBY JACKSONS INTERNATIONAL,PORT MORESBY,PAPUA NEW GUINEA,45,-9.443,147.22,612,900000
IMF,IMPHAL,IMPHAL,INDIA,775,24.76,93.897,615,886338
DED,DEHRADUN,DEHRA DUN,INDIA,551,30.187,78.18,616,882564
LDB,LONDRINA,LONDRINA,BRAZIL,570,-23.334,-51.13,617,880429
BZE,PHILIP S W GOLDSON INTERNATIONAL,BELIZE CITY,BELIZE,5,17.539,-88.308,620,867976
SAP,LA MESA INTERNATIONAL,SAN PEDRO SULA,HONDURAS,28,15.452,-87.923,621,867747
RAO,LEITE LOPES,RIBEIRAO PRETO,BRAZIL,550,-21.134,-47.774,622,867544
MLG,ABDUL RACHMAN SALEH,MALANG,INDONESIA,527,-7.926,112.714,624,859000
BTU,BINTULU,BINTULU,MALAYSIA,2,3.172,113.044,626,849596
PIU,CAPITAN CONCHA,PIURA,PERU,54,-5.206,-80.616,627,849388
MCY,MAROOCHYDORE SUNSHINE COAST,MAROOCHYDORE,AUSTRALIA,5,-26.603,153.091,628,847906
MMK,MURMANSK,MURMANSK,RUSSIA,82,68.782,32.751,629,846440
KER,KERMAN,KERMAN,IRAN,1749,30.261,56.957,630,846317
IZO,IZUMO,IZUMO,JAPAN,5,35.414,132.89,632,832825
FAT,FRESNO YOSEMITE INTERNATIONAL,FRESNO,USA,103,36.776,-119.718,633,805252
AOR,SULTAN ABDUL HALIM,ALOR SETAR,MALAYSIA,5,6.194,100.403,634,802304
TST,TRANG,TRANG,THAILAND,21,7.509,99.616,635,799279
USH,USHUAIA MALVINAS ARGENTINAS,USHUAIA,ARGENTINA,32,-54.843,-68.296,636,795652
PVH,GOVERNADOR JORGE TEIXEIRA DE OLIVEIRA,PORTO VELHO,BRAZIL,89,-8.709,-63.902,637,794109
JRO,KILIMANJARO INTERNATIONAL,KILIMANJARO,TANZANIA,894,-3.429,37.074,638,780800
FIH,KINSHASA NDJILI INTERNATIONAL,KINSHASA,ZAIRE,314,-4.386,15.444,639,773338
MLX,ERHAC,MALATYA,TURKEY,862,38.436,38.092,640,767701
AZD,YAZD SHAHID SADOOGHI,YAZD,IRAN,1236,31.905,54.276,641,764074
MMB,MEMANBETSU,MEMANBETSU,JAPAN,42,43.881,144.164,642,757103
ROS,ROSARIO,ROSARIO,ARGENTINA,26,-32.903,-60.784,643,747571
BTJ,SULTAN ISKANDARMUDA,BANDA ACEH,INDONESIA,20,5.523,95.42,644,741438
PAD,PADERBORN LIPPSTADT,PADERBORN,GERMANY,214,51.614,8.616,645,738474
TOY,TOYAMA,TOYAMA,JAPAN,29,36.648,137.187,646,736740
BKS,PADANG KEMILING,BENGKULU,INDONESIA,16,-3.864,102.341,648,736315
SJP,SAO JOSE DO RIO PRETO,SAO JOSE DO RIO PRETO,BRAZIL,544,-20.816,-49.406,650,728162
REN,ORENBURG,ORENBURG,RUSSIA,118,51.796,55.457,651,714635
MFE,MC ALLEN MILLER INTERNATIONAL,MCALLEN,USA,33,26.176,-98.239,652,714067
UTP,U TAPHAO INTERNATIONAL,RAYONG,THAILAND,18,12.68,101.005,653,710000
TGU,TONCONTIN INTERNATIONAL,TEGUCIGALPA,HONDURAS,1005,14.061,-87.217,654,697925
TLH,TALLAHASSEE RGNL,TALLAHASSEE,USA,25,30.396,-84.35,656,692724
ACA,GENERAL JUAN N ALVAREZ INTERNATIONAL,ACAPULCO,MEXICO,5,16.757,-99.753,658,685124
NJC,NIZHNEVARTOVSK,NIZHNEVARTOVSK,RUSSIA,0,60.95,76.467,661,680577
AMA,AMARILLO INTERNATIONAL,AMARILLO,USA,1100,35.219,-101.706,662,679653
ASJ,AMAMI,AMAMI,JAPAN,9,28.431,129.712,663,676601
BHO,BHOPAL,BHOPAL,INDIA,524,23.285,77.337,664,676015
PLW,MUTIARA,PALU,INDONESIA,87,-0.918,119.909,666,672698
TPP,TARAPOTO,TARAPOTO,PERU,275,-6.509,-76.373,667,671576
YGJ,MIHO,MIHO,JAPAN,7,35.492,133.236,668,666445
KTA,KARRATHA,KARRATHA,AUSTRALIA,9,-20.712,116.773,669,659913
PKC,YELIZOVO,PETROPAVLOVSK,RUSSIA,40,53.166,158.453,671,658718
MGF,MARINGA,MARINGA,BRAZIL,559,-23.44,-51.907,672,658000
ABD,ABADAN,ABADAN,IRAN,4,30.365,48.233,675,644915
PKY,TJILIK RIWUT,PALANGKARAYA,INDONESIA,25,-2.225,113.943,676,642330
ROK,ROCKHAMPTON,ROCKHAMPTON,AUSTRALIA,11,-23.382,150.475,677,634913
TER,LAJES,LAJES (TERCEIRA ISLAND),ACORES,55,38.764,-27.093,678,631236
PMR,PALMERSTON NORTH,PALMERSTON NORTH,NEW ZEALAND,47,-40.321,175.617,680,630000
BUZ,BUSHEHR,BUSHEHR,IRAN,22,28.945,50.834,682,625976
VGA,VIJAYAWADA,VIJAYAWADA,INDIA,24,16.53,80.797,684,622354
ISP,LONG ISLAND MAC ARTHUR,ISLIP,USA,31,40.795,-73.1,685,620000
CRD,COMODORO RIVADAVIA,COMODORO RIVADAVIA,ARGENTINA,58,-45.785,-67.466,686,618257
HRE,HARARE INTERNATIONAL,HARARE,ZIMBABWE,1490,-17.932,31.093,687,612208
TNR,ANTANANARIVO IVATO,ANTANANARIVO,MADAGASCAR,1280,-18.797,47.479,688,611175
VOZ,CHERTOVITSKOYE,VORONEZH,RUSSIA,157,51.814,39.23,689,606697
OBO,OBIHIRO,OBIHIRO,JAPAN,154,42.733,143.217,690,605703
IOS,ILHEUS,ILHEUS,BRAZIL,5,-14.816,-39.033,691,596351
PUY,PULA,PULA,CROATIA,85,44.893,13.922,692,595812
LBU,LABUAN,LABUAN,MALAYSIA,31,5.301,115.25,693,595290
ZAD,ZADAR,ZADAR,CROATIA,89,44.108,15.347,694,589841
NBC,BEAUFORT MCAS,BEAUFORT,USA,11,32.477,-80.723,695,587775
ASP,ALICE SPRINGS,ALICE SPRINGS,AUSTRALIA,546,-23.807,133.902,696,582755
ASF,ASTRAKHAN,ASTRAKHAN,RUSSIA,-19,46.283,48.006,697,582302
MCP,MACAPA,MACAPA,BRAZIL,18,0.051,-51.072,698,576257
LGP,PAGADIAN,LEGAZPI,PHILIPPINES,2,7.828,123.46,700,564372
IXL,LEH,LEH,INDIA,3256,34.136,77.546,701,563800
TRU,CAPITAN CARLOS MARTINEZ DE PINILLOS,TRUJILLO,PERU,23,-8.085,-79.109,702,560922
TUC,TENIENTE BENJAMIN MATIENZO,TUCUMAN,ARGENTINA,456,-26.841,-65.105,704,556834
ZAH,ZAHEDAN INTERNATIONAL,ZAHEDAN,IRAN,1378,29.476,60.906,705,554683
DGT,DUMAGUETE,DUMAGUETE,PHILIPPINES,5,9.334,123.302,706,546276
USN,ULSAN,ULSAN,KOREA,14,35.593,129.352,707,545321
VAS,SIVAS,SIVAS,TURKEY,1596,39.814,36.903,711,533278
BAX,BARNAUL,BARNAUL,RUSSIA,256,53.364,83.542,712,521600
FDH,FRIEDRICHSHAFEN,FRIEDRICHSHAFEN,GERMANY,417,47.671,9.511,713,517209
CIX,CAPT JOSE ABELARDO QUINONES GONZALES,CHICLAYO,PERU,29,-6.787,-79.828,714,516589
JOI,JOINVILLE,JOINVILLE,BRAZIL,5,-26.225,-48.797,715,515832
DNZ,CARDAK,DENIZLI,TURKEY,852,37.785,29.701,717,509047
COO,COTONOU CADJEHOUN,COTONOU,BENIN,6,6.357,2.384,718,503633
RSU,YEOSU,YEOSU,KOREA,21,34.84,127.615,719,503371
PCL,CAP FAP DAVID AVENZUR RENGIFO,PUCALLPA,PERU,157,-8.378,-74.574,720,499800
PHS,PHITSANULOK,PHITSANULOK,THAILAND,45,16.783,100.279,723,492117
TIR,TIRUPATI,TIRUPETI,INDIA,104,13.632,79.543,724,486029
PNZ,PETROLINA,PETROLINA,BRAZIL,385,-9.364,-40.564,725,485495
MKW,RENDANI,MANOKWARI,INDONESIA,5,-0.88,134.05,727,479889
RKT,RAS AL KHAIMAH INTERNATIONAL,RAS AL KHAIMAH,UNITED ARAB EMIRATES,32,25.613,55.939,728,471432
PHE,PORT HEDLAND INTERNATIONAL,PORT HEDLAND,AUSTRALIA,11,-20.378,118.626,729,470741
BRQ,TURANY,TURANY,CZECH REPUBLIC,237,49.151,16.694,730,470000
AAE,ANNABA,ANNABA,ALGERIA,5,36.822,7.809,732,466053
JUL,JULIACA,JULIACA,PERU,3825,-15.467,-70.158,733,462650
STM,SANTA MARIA,SANTAREM,BRAZIL,88,-29.711,-53.688,734,452966
SCW,SYKTYVKAR,SYKTYVKAR,RUSSIA,105,61.648,50.846,736,451187
HME,OUED IRARA,HASSI-MESSAOUD,ALGERIA,142,31.673,6.14,737,450929
RAS,RASHT,RASHT,IRAN,-12,37.325,49.606,738,446576
MWZ,MWANZA,MWANZA,TANZANIA,1147,-2.444,32.932,739,444215
ZAZ,ZARAGOZA AB,ZARAGOZA,SPAIN,264,41.666,-1.041,741,438035
PKN,ISKANDAR,PANGKALAN BUN,INDONESIA,23,-2.705,111.673,743,436264
GNV,GAINESVILLE RGNL,GAINESVILLE,USA,47,29.69,-82.272,744,436184
NPL,NEW PLYMOUTH,NEW PLYMOUTH,NEW ZEALAND,30,-39.009,174.179,745,435000
TIM,MOSES KILANGIN,TIMIKA,INDONESIA,32,-4.528,136.887,747,429774
TJQ,H AS HANANDJOEDDIN,TANJUNG PANDAN,INDONESIA,50,-2.746,107.755,749,421211
BHI,COMANDANTE ESPORA,BAHIA BLANCA,ARGENTINA,75,-38.725,-62.169,751,410415
RAJ,RAJKOT,RAJKOT,INDIA,135,22.309,70.779,752,405518
BQS,IGNATYEVO,BLAGOVESCHENSK,RUSSIA,196,50.422,127.41,754,405000
SCN,SAARBRUCKEN,SAARBRUECKEN,GERMANY,323,49.214,7.109,755,396849
HNA,HANAMAKI,HANAMAKI,JAPAN,91,39.431,141.136,756,395647
KAN,KANO MALLAM AMINU INTERNATIONAL,KANO,NIGERIA,478,12.047,8.524,757,389530
GTO,JALALUDDIN,GORONTALO,INDONESIA,18,0.637,122.852,759,381082
HTA,KADALA,CHITA,RUSSIA,692,52.026,113.305,760,380500
KOP,NAKHON PHANOM,NAKHON PHANOM,THAILAND,138,17.412,104.777,762,372026
RTB,ROATAN,ROATAN,HONDURAS,6,16.317,-86.522,763,371657
TNN,TAINAN,TAINAN,TAIWAN,20,22.95,120.206,765,367124
TTJ,TOTTORI,TOTTORI,JAPAN,20,35.53,134.166,766,366925
BIK,FRANS KAISIEPO,BIAK,INDONESIA,15,-1.19,136.108,768,361410
STW,SHPAKOVSKOYE,STAVROPOL,RUSSIA,453,45.109,42.113,770,356253
CFS,COFFS HARBOUR,COFF'S HARBOUR,AUSTRALIA,6,-30.321,153.116,771,354212
ENU,ENUGU,ENUGU,NIGERIA,143,6.474,7.562,772,352820
TRG,TAURANGA,TAURANGA,NEW ZEALAND,4,-37.672,176.196,774,350085
SOQ,JEFMAN,SORONG,INDONESIA,4,-0.926,131.12,776,347355
SNO,SAKON NAKHON,SAKON NAKHON,THAILAND,162,17.195,104.119,777,346351
RBR,PRESIDENTE MEDICI,RIO BRANCO,BRAZIL,194,-9.869,-67.894,778,345079
TTE,BABULLAH,TERNATE,INDONESIA,15,0.832,127.381,780,342313
VFA,VICTORIA FALLS INTERNATIONAL,VICTORIA FALLS,ZIMBABWE,1064,-18.096,25.839,781,341196
IXU,AURANGABAD,AURANGABAD,INDIA,583,19.863,75.398,783,326971
MLN,MELILLA,MELILLA,SPANISH NORTH AFRICA,48,35.28,-2.956,784,324366
OSR,MOSNOV,OSTRAVA,CZECH REPUBLIC,258,49.696,18.111,785,324116
DAV,ENRIQUE MALEK INTERNATIONAL,DAVID,PANAMA,28,8.391,-82.435,786,323465
HLZ,HAMILTON,HAMILTON,NEW ZEALAND,53,-37.866,175.332,789,317348
RES,RESISTENCIA,RESISTENCIA,ARGENTINA,54,-27.45,-59.056,790,316290
BHE,WOODBOURNE,WOODBOURNE,NEW ZEALAND,34,-41.518,173.87,795,302884
WIL,NAIROBI WILSON,NAIROBI,KENYA,1688,-1.322,36.815,796,302194
SWF,STEWART INTERNATIONAL,NEWBURGH,USA,150,41.504,-74.105,797,302000
TTT,FENGNIN,FENGNIN,TAIWAN,44,22.757,121.093,799,300432
MKQ,MOPAH,MERAUKE,INDONESIA,4,-8.52,140.418,800,300332
IMP,IMPERATRIZ,IMPERATRIZ,BRAZIL,132,-5.531,-47.46,801,300023
REL,ALMIRANTE ZAR,TRELEW,ARGENTINA,43,-43.21,-65.27,802,298946
ERC,ERZINCAN,ERZINCAN,TURKEY,1154,39.71,39.526,804,296284
BJA,SOUMMAM,BEJAJA,ALGERIA,7,36.712,5.07,805,294933
IVC,INVERCARGILL,INVERCARGILL,NEW ZEALAND,2,-46.412,168.313,806,294832
RGL,RIO GALLEGOS,RIO GALLEGOS,ARGENTINA,19,-51.609,-69.313,809,255982
MKK,MOLOKAI,MOLOKAI,USA,139,21.153,-157.096,810,290588
LPT,LAMPANG,LAMPANG,THAILAND,247,18.272,99.504,811,290420
MDQ,MAR DEL PLATA,MAR DEL PLATA,ARGENTINA,23,-37.934,-57.573,812,285289
BVB,BOA VISTA,BOA VISTA,BRAZIL,85,2.846,-60.69,813,283699
ERF,ERFURT,ERFURT,GERMANY,316,50.98,10.958,814,282731
EAS,SAN SEBASTIAN,SAN SEBASTIAN,SPAIN,5,43.356,-1.791,815,281859
PPP,PROSERPINE WHITSUNDAY COAST,PROSSERPINE,AUSTRALIA,25,-20.495,148.552,816,280848
MAB,MARABA,MARABA,BRAZIL,109,-5.368,-49.138,817,280174
MOC,MONTES CLAROS,MONTES CLAROS,BRAZIL,668,-16.707,-43.819,818,280022
TNJ,KIJANG,TANJUNG PINANG,INDONESIA,18,0.922,104.532,819,274509
IPH,SULTAN AZLAN SHAH,IPOH,MALAYSIA,40,4.568,101.092,820,274146
NKT,CHERRY POINT MCAS,CHERRY POINT,USA,9,34.902,-76.881,821,272576
UUD,MUKHINO,ULAN-UDE,RUSSIA,516,51.807,107.438,822,269700
KEJ,KEMEROVO,KEMOROVO,RUSSIA,264,55.27,86.107,823,268560
KIS,KISUMU,KISUMU,KENYA,1209,-0.086,34.729,825,267379
JUJ,JUJUY,JUJUY,ARGENTINA,921,-24.393,-65.098,826,264819
RJA,RAJAHMUNDRY,RAJAHMUNDRY,INDIA,45,17.109,81.818,827,261348
LOE,LOEI,LOEI,THAILAND,263,17.439,101.722,828,261274
COT,COTULLA LA SALLE CO,COTULLA,USA,146,28.458,-99.22,830,258529
PPB,PRESIDENTE PRUDENTE,PRESIDENT PRUDENTE,BRAZIL,451,-22.175,-51.424,831,256883
MSJ,MISAWA AB,MISAWA,JAPAN,37,40.703,141.368,832,252616
TSJ,TSUSHIMA,TSUSHIMA,JAPAN,65,34.285,129.33,834,250194
FEN,FERNANDO DE NORONHA,FERNANDO DO NORONHA,BRAZIL,55,-3.855,-32.423,836,248248
ABX,ALBURY,ALBURY,AUSTRALIA,165,-36.068,146.958,837,244611
NAW,NARATHIWAT,NARATHIWAT,THAILAND,6,6.52,101.743,839,241721
KUA,KUANTAN,KUANTAN,MALAYSIA,18,3.775,103.209,840,241314
ROT,ROTORUA,ROTORUA,NEW ZEALAND,285,-38.109,176.317,841,241303
UEO,KUMEJIMA,KUMEJIMA,JAPAN,8,26.363,126.714,844,238875
AJL,AIZAWL,AIZWAL,INDIA,306,23.746,92.803,846,235613
PLU,PAMPULHA,BELO HORIZONTE,BRAZIL,790,-19.852,-43.95,847,234675
IAG,NIAGARA FALLS INTERNATIONAL,NIAGARA FALLS,USA,180,43.107,-78.946,848,233302
PAC,MARCOS A GELABERT INTERNATIONAL,PANAMA,PANAMA,10,8.973,-79.556,852,230000
KGI,KALGOORLIE BOULDER,KALGOORLIE,AUSTRALIA,367,-30.789,121.462,854,227946
GNS,BINAKA,GUNUNG SITOLI,INDONESIA,7,1.166,97.703,856,225147
UAQ,SAN JUAN,SAN JULIAN,ARGENTINA,598,-31.571,-68.418,858,217712
IXS,SILCHAR,SILCHAR,INDIA,108,24.913,92.979,861,212228
PSS,POSADAS,POSADAS,ARGENTINA,131,-27.386,-55.971,863,211581
WGA,WAGGA WAGGA,WAGGA WAGGA,AUSTRALIA,221,-35.165,147.466,864,209671
ISA,MOUNT ISA,MOUNT ISA,AUSTRALIA,342,-20.664,139.489,866,208395
ENE,H HASAN AROEBOESMAN,ENDE,INDONESIA,15,-8.849,121.662,867,208284
WMX,WAMENA,WAMENA,INDONESIA,1550,-4.096,138.952,872,201710
LBJ,MUTIARA II,LABUHAN BAJO,INDONESIA,21,-8.486,119.889,874,200212
BAL,BATMAN,BATMAN,TURKEY,556,37.929,41.116,877,197301
CBQ,CALABAR,CALABAR,NIGERIA,65,4.976,8.347,880,189908
ABA,ABAKAN,ABAKAN,RUSSIA,254,53.74,91.385,882,188786
DBO,DHANBAD,DHANBAD,INDIA,259,23.834,86.425,883,188736
DBO,DUBBO,DUBBO,AUSTRALIA,285,-32.217,148.575,883,188736
HUN,HUALIEN,HUALIEN,TAIWAN,16,24.023,121.618,888,184347
BRO,BROWNSVILLE SOUTH PADRE ISLAND INTERNATIONAL,BROWNSVILLE,USA,7,25.907,-97.426,889,183604
PXO,PORTO SANTO,PORTO SANTO,MADEIRA,104,33.073,-16.35,891,175300
LCE,GOLOSON INTERNATIONAL,LA CEIBA,HONDURAS,15,15.742,-86.853,897,165802
NIM,DIORI HAMANI,NIAMEY,NIGER,224,13.481,2.184,899,165000
RJK,RIJEKA,RIJEKA,CROATIA,85,45.217,14.57,901,160000
FXE,FORT LAUDERDALE EXECUTIVE,FORT LAUDERDALE,USA,5,26.197,-80.171,902,159999
KTG,RAHADI USMAN,KETAPANG,INDONESIA,15,-1.816,109.963,903,156577
TMW,TAMWORTH,TAMWORTH,AUSTRALIA,407,-31.084,150.847,906,153838
PEZ,PLEASANTON MUNI,PENZA,RUSSIA,132,28.954,-98.52,907,152758
RGA,RIO GRANDE,RIO GRANDE,ARGENTINA,21,-53.777,-67.749,909,150849
MZH,MERZIFON,MERZIFON,TURKEY,545,40.829,35.522,911,146707
ARK,ARUSHA,ARUSHA,TANZANIA,1387,-3.368,36.633,913,142224
LDU,LAHAD DATU,LAHAD DATU,MALAYSIA,14,5.032,118.324,914,140077
TLM,ZENATA,TLEMCEN,ALGERIA,249,35.017,-1.45,915,137907
BMU,MUHAMMAD SALAHUDDIN,BIMA,INDONESIA,22,-8.539,118.687,917,134977
MQF,MAGNITOGORSK,MAGNETIOGORSK,RUSSIA,436,53.393,58.76,919,127662
WJR,WAJIR,WAJIR,KENYA,235,1.733,40.091,921,123000
BTK,BRATSK,BRATSK,RUSSIA,492,56.371,101.699,924,117789
LRD,LAREDO INTERNATIONAL,LAREDO,USA,155,27.544,-99.461,926,116565
EDL,ELDORET INTERNATIONAL,ELDORET,KENYA,2116,0.404,35.238,928,111250
FMA,FORMOSA,FORMOSA,ARGENTINA,60,-26.212,-58.228,929,106527
PRA,GENERAL URQUIZA,PARANA,ARGENTINA,75,-31.795,-60.48,930,106054
CPC,AVIADOR C CAMPOS,SAN MARTIN DES ANDES,ARGENTINA,784,-40.075,-71.137,931,104695
PMY,EL TEHUELCHE,PUERTO MADRYN,ARGENTINA,136,-42.759,-65.102,932,104315
CNQ,CORRIENTES,CORRIENTES,ARGENTINA,62,-27.445,-58.762,934,102977
SJT,SAN ANGELO RGNL MATHIS FLD,SAN ANGELO,USA,585,31.358,-100.496,936,102079
SDE,SANTIAGO DEL ESTERO,SANTIAGO DEL ESTERO,ARGENTINA,200,-27.766,-64.31,937,98827
BSK,BISKRA,BISKRA,ALGERIA,89,34.793,5.738,939,93644
AZR,TOUAT CHEIKH SIDI MOHAMED BELKEBIR,ADRAR,ALGERIA,281,27.837,-0.186,942,92197
SRI,TEMINDUNG,SAMARINDA,INDONESIA,11,-0.484,117.157,943,91849
LUQ,SAN LUIS,SAN LUIS,ARGENTINA,710,-33.273,-66.356,944,90926
PED,PARDUBICE,PARDUBICE,CZECH REPUBLIC,226,50.013,15.739,947,88490
MFK,MAFIKENG NORTH,MAFIKENG,SOUTH AFRICA,1265,-25.753,25.612,954,79850
CYI,CHIAYI,CHIAYI,TAIWAN,26,23.462,120.393,955,78826
KNX,KUNUNURRA,KUNUNURRA,AUSTRALIA,45,-15.778,128.707,958,77415
IRJ,LA RIOJA,LA RIOJA,ARGENTINA,438,-29.381,-66.796,960,75469
JHM,KAPALUA,LAHANIA-KAPALUA,USA,79,20.963,-156.674,961,75295
PRH,PHRAE,PHRAE,THAILAND,164,18.132,100.164,964,72274
TMR,TAMANRASSET,TAMANRASSET,ALGERIA,1378,22.811,5.451,965,70515
KPO,POHANG,POHANG,KOREA,22,35.988,129.42,966,68226
LNY,LANAI,LANAI,USA,399,20.786,-156.951,967,64483
CTC,CATAMARCA,CATAMARCA,ARGENTINA,464,-28.596,-65.752,969,64007
EQS,ESQUEL,ESQUEL,ARGENTINA,788,-42.908,-71.139,970,60092
MKZ,MALACCA,MALACCA,MALAYSIA,11,2.263,102.251,972,58703
AFA,SAN RAFAEL,SAN RAFAEL,ARGENTINA,753,-34.588,-68.403,973,56905
RCU,RIO CUARTO AREA DE MATERIAL,RIO CUARTO,ARGENTINA,421,-33.086,-64.261,974,56844
CLL,EASTERWOOD FLD,COLLEGE STATION,USA,98,30.588,-96.364,979,53557
RSA,SANTA ROSA,SANTA ROSA,ARGENTINA,193,-36.588,-64.275,982,49109
SJI,ANTIQUE,SAN JOSE,PHILIPPINES,8,10.766,121.932,983,49010
KYD,LANYU,LANYU,TAIWAN,2,22.029,121.527,984,47406
GHA,NOUMERATE,GHARDAIA,ALGERIA,461,32.384,3.794,985,45794
SFN,SAUCE VIEJO,SANTA FE,ARGENTINA,18,-31.712,-60.812,988,37725
VDM,GOBERNADOR CASTELLO,VIEDMA,ARGENTINA,7,-40.869,-63,989,36327
